IXPE                    
1 49954U 21121A   24141.25001157  .00015014  00000+0  11694-2 0  9994
2 49954   0.2293 241.2773 0009199 225.2930 291.6517 14.97899906133703
